start=new Date('2022-10-25T00:00:00.000Z').valueOf();
sats=[{"ELEMENT_SET_NO":"999","RA_OF_ASC_NODE":"309.1897","PERIOD":"94.086","FILE":"3631857","EPOCH":"2022-10-24T22:00:00.999936","TLE_LINE2":"2 53291  53.2173 309.1897 0001537  40.0640 291.2516 15.30509278  1300","SITE":"AFETR","MEAN_MOTION_DOT":"-0.01134047","RCS_SIZE":"LARGE","NORAD_CAT_ID":"53291","OBJECT_NAME":"STARLINK-4166","COUNTRY_CODE":"US","OBJECT_TYPE":"PAYLOAD","MEAN_MOTION_DDOT":"0.0000000000000","ARG_OF_PERICENTER":"40.0640","REF_FRAME":"TEME","SEMIMAJOR_AXIS":"6852.429","TIME_SYSTEM":"UTC","MEAN_ANOMALY":"291.2516","MEAN_ELEMENT_THEORY":"SGP4","CLASSIFICATION_TYPE":"U","GP_ID":"216073991","PERIAPSIS":"473.241","BSTAR":"-0.04158500000000","CENTER_NAME":"EARTH","APOAPSIS":"475.347","OBJECT_ID":"2022-086BB","REV_AT_EPOCH":"130","MEAN_MOTION":"15.30509278","EPHEMERIS_TYPE":"0","DECAY_DATE":null,"LAUNCH_DATE":"2022-07-24","TLE_LINE1":"1 53291U 22086BB  22297.91667824 -.01134047  00000-0 -41585-1 0  9999","ECCENTRICITY":"0.00015370","INCLINATION":"53.2173"},{"RA_OF_ASC_NODE":"313.7442","ELEMENT_SET_NO":"999","FILE":"3631857","PERIOD":"95.438","EPOCH":"2022-10-24T22:00:00.999936","TLE_LINE2":"2 53292  53.2140 313.7442 0001881  55.2108 315.1147 15.08836066  1300","SITE":"AFETR","MEAN_MOTION_DOT":"0.00029933","OBJECT_NAME":"STARLINK-4159","NORAD_CAT_ID":"53292","RCS_SIZE":"LARGE","COUNTRY_CODE":"US","OBJECT_TYPE":"PAYLOAD","MEAN_MOTION_DDOT":"0.0000000000000","ARG_OF_PERICENTER":"55.2108","TIME_SYSTEM":"UTC","MEAN_ANOMALY":"315.1147","REF_FRAME":"TEME","SEMIMAJOR_AXIS":"6917.892","CLASSIFICATION_TYPE":"U","MEAN_ELEMENT_THEORY":"SGP4","GP_ID":"216074245","PERIAPSIS":"538.456","CENTER_NAME":"EARTH","BSTAR":"0.00189100000000","REV_AT_EPOCH":"130","OBJECT_ID":"2022-086BC","APOAPSIS":"541.059","EPHEMERIS_TYPE":"0","MEAN_MOTION":"15.08836066","DECAY_DATE":null,"LAUNCH_DATE":"2022-07-24","ECCENTRICITY":"0.00018810","TLE_LINE1":"1 53292U 22086BC  22297.91667824  .00029933  00000-0  18910-2 0  9991","INCLINATION":"53.2140"},{"PERIOD":"92.745","FILE":"3631857","EPOCH":"2022-10-24T22:00:00.999936","ELEMENT_SET_NO":"999","RA_OF_ASC_NODE":"306.7633","TLE_LINE2":"2 53293  53.2167 306.7633 0001304  56.2760  31.9348 15.52636106  1307","SITE":"AFETR","COUNTRY_CODE":"US","MEAN_MOTION_DOT":"-0.01057720","RCS_SIZE":"LARGE","OBJECT_NAME":"STARLINK-4148","NORAD_CAT_ID":"53293","MEAN_MOTION_DDOT":"0.0000000000000","ARG_OF_PERICENTER":"56.2760","OBJECT_TYPE":"PAYLOAD","GP_ID":"216074808","SEMIMAJOR_AXIS":"6787.170","REF_FRAME":"TEME","TIME_SYSTEM":"UTC","MEAN_ANOMALY":"31.9348","MEAN_ELEMENT_THEORY":"SGP4","CLASSIFICATION_TYPE":"U","BSTAR":"-0.01858700000000","CENTER_NAME":"EARTH","PERIAPSIS":"408.150","MEAN_MOTION":"15.52636106","EPHEMERIS_TYPE":"0","APOAPSIS":"409.920","REV_AT_EPOCH":"130","OBJECT_ID":"2022-086BD","TLE_LINE1":"1 53293U 22086BD  22297.91667824 -.01057720  00000-0 -18587-1 0  9999","ECCENTRICITY":"0.00013040","INCLINATION":"53.2167","DECAY_DATE":null,"LAUNCH_DATE":"2022-07-24"},{"BSTAR":"-0.01862900000000","CENTER_NAME":"EARTH","PERIAPSIS":"408.209","GP_ID":"216073665","MEAN_ELEMENT_THEORY":"SGP4","CLASSIFICATION_TYPE":"U","SEMIMAJOR_AXIS":"6787.139","REF_FRAME":"TEME","MEAN_ANOMALY":"22.2320","TIME_SYSTEM":"UTC","INCLINATION":"53.2174","TLE_LINE1":"1 53294U 22086BE  22297.91667824 -.01060231  00000-0 -18629-1 0  9998","ECCENTRICITY":"0.00011710","DECAY_DATE":null,"LAUNCH_DATE":"2022-07-24","MEAN_MOTION":"15.52646762","EPHEMERIS_TYPE":"0","APOAPSIS":"409.799","OBJECT_ID":"2022-086BE","REV_AT_EPOCH":"130","SITE":"AFETR","TLE_LINE2":"2 53294  53.2174 306.8773 0001171  66.7897  22.2320 15.52646762  1303","EPOCH":"2022-10-24T22:00:00.999936","PERIOD":"92.745","FILE":"3631857","ELEMENT_SET_NO":"999","RA_OF_ASC_NODE":"306.8773","ARG_OF_PERICENTER":"66.7897","MEAN_MOTION_DDOT":"0.0000000000000","OBJECT_TYPE":"PAYLOAD","COUNTRY_CODE":"US","RCS_SIZE":"LARGE","NORAD_CAT_ID":"53294","OBJECT_NAME":"STARLINK-4146","MEAN_MOTION_DOT":"-0.01060231"},{"MEAN_ELEMENT_THEORY":"SGP4","CLASSIFICATION_TYPE":"U","SEMIMAJOR_AXIS":"6917.906","REF_FRAME":"TEME","MEAN_ANOMALY":"28.6250","TIME_SYSTEM":"UTC","GP_ID":"216048792","PERIAPSIS":"538.356","BSTAR":"-0.00117940000000","CENTER_NAME":"EARTH","APOAPSIS":"541.187","REV_AT_EPOCH":"1207","OBJECT_ID":"2022-097A","MEAN_MOTION":"15.08831550","EPHEMERIS_TYPE":"0","DECAY_DATE":null,"LAUNCH_DATE":"2022-08-10","INCLINATION":"53.2160","TLE_LINE1":"1 53388U 22097A   22298.00001157 -.00019005  00000-0 -11794-2 0  9995","ECCENTRICITY":"0.00020460","ELEMENT_SET_NO":"999","RA_OF_ASC_NODE":"253.4062","EPOCH":"2022-10-25T00:00:00.999648","PERIOD":"95.438","FILE":"3631829","SITE":"AFETR","TLE_LINE2":"2 53388  53.2160 253.4062 0002046  29.7593  28.6250 15.08831550 12074","RCS_SIZE":"LARGE","NORAD_CAT_ID":"53388","OBJECT_NAME":"STARLINK-4522","MEAN_MOTION_DOT":"-0.00019005","COUNTRY_CODE":"US","OBJECT_TYPE":"PAYLOAD","ARG_OF_PERICENTER":"29.7593","MEAN_MOTION_DDOT":"0.0000000000000"},{"GP_ID":"216048888","CLASSIFICATION_TYPE":"U","MEAN_ELEMENT_THEORY":"SGP4","MEAN_ANOMALY":"58.8416","TIME_SYSTEM":"UTC","REF_FRAME":"TEME","SEMIMAJOR_AXIS":"6917.898","CENTER_NAME":"EARTH","BSTAR":"-0.00106040000000","PERIAPSIS":"538.294","EPHEMERIS_TYPE":"0","MEAN_MOTION":"15.08834285","REV_AT_EPOCH":"1207","OBJECT_ID":"2022-097B","APOAPSIS":"541.232","INCLINATION":"53.2172","ECCENTRICITY":"0.00021230","TLE_LINE1":"1 53389U 22097B   22298.00001157 -.00017123  00000-0 -10604-2 0  9994","DECAY_DATE":null,"LAUNCH_DATE":"2022-08-10","EPOCH":"2022-10-25T00:00:00.999648","FILE":"3631830","PERIOD":"95.438","RA_OF_ASC_NODE":"253.3971","ELEMENT_SET_NO":"999","SITE":"AFETR","TLE_LINE2":"2 53389  53.2172 253.3971 0002123  39.5404  58.8416 15.08834285 12079","COUNTRY_CODE":"US","OBJECT_NAME":"STARLINK-4523","NORAD_CAT_ID":"53389","RCS_SIZE":"LARGE","MEAN_MOTION_DOT":"-0.00017123","ARG_OF_PERICENTER":"39.5404","MEAN_MOTION_DDOT":"0.0000000000000","OBJECT_TYPE":"PAYLOAD"},{"DECAY_DATE":null,"LAUNCH_DATE":"2022-08-10","INCLINATION":"53.2177","ECCENTRICITY":"0.00019200","TLE_LINE1":"1 53390U 22097C   22298.00001157 -.00017418  00000-0 -10793-2 0  9992","OBJECT_ID":"2022-097C","REV_AT_EPOCH":"1207","APOAPSIS":"541.118","EPHEMERIS_TYPE":"0","MEAN_MOTION":"15.08825502","PERIAPSIS":"538.461","CENTER_NAME":"EARTH","BSTAR":"-0.00107930000000","CLASSIFICATION_TYPE":"U","MEAN_ELEMENT_THEORY":"SGP4","TIME_SYSTEM":"UTC","MEAN_ANOMALY":"46.1131","SEMIMAJOR_AXIS":"6917.925","REF_FRAME":"TEME","GP_ID":"216048897","OBJECT_TYPE":"PAYLOAD","ARG_OF_PERICENTER":"32.2957","MEAN_MOTION_DDOT":"0.0000000000000","NORAD_CAT_ID":"53390","OBJECT_NAME":"STARLINK-4517","RCS_SIZE":"LARGE","MEAN_MOTION_DOT":"-0.00017418","COUNTRY_CODE":"US","SITE":"AFETR","TLE_LINE2":"2 53390  53.2177 253.3987 0001920  32.2957  46.1131 15.08825502 12076","RA_OF_ASC_NODE":"253.3987","ELEMENT_SET_NO":"999","EPOCH":"2022-10-25T00:00:00.999648","FILE":"3631830","PERIOD":"95.438"},{"COUNTRY_CODE":"US","MEAN_MOTION_DOT":"0.00028391","RCS_SIZE":"LARGE","NORAD_CAT_ID":"53391","OBJECT_NAME":"STARLINK-4521","MEAN_MOTION_DDOT":"0.0000000000000","ARG_OF_PERICENTER":"40.0977","OBJECT_TYPE":"PAYLOAD","PERIOD":"95.440","FILE":"3631857","EPOCH":"2022-10-24T22:00:00.999936","ELEMENT_SET_NO":"999","RA_OF_ASC_NODE":"253.7728","TLE_LINE2":"2 53391  53.2181 253.7728 0001847  40.0977 345.3950 15.08808689  1300","SITE":"AFETR","MEAN_MOTION":"15.08808689","EPHEMERIS_TYPE":"0","APOAPSIS":"541.119","REV_AT_EPOCH":"130","OBJECT_ID":"2022-097D","TLE_LINE1":"1 53391U 22097D   22297.91667824  .00028391  00000-0  17963-2 0  9997","ECCENTRICITY":"0.00018470","INCLINATION":"53.2181","LAUNCH_DATE":"2022-08-10","DECAY_DATE":null,"GP_ID":"216074253","SEMIMAJOR_AXIS":"6917.976","REF_FRAME":"TEME","TIME_SYSTEM":"UTC","MEAN_ANOMALY":"345.3950","MEAN_ELEMENT_THEORY":"SGP4","CLASSIFICATION_TYPE":"U","BSTAR":"0.00179630000000","CENTER_NAME":"EARTH","PERIAPSIS":"538.563"},{"SITE":"AFETR","TLE_LINE2":"2 53392  53.2179 253.3962 0001998  39.5308 118.8668 15.08820594 12076","EPOCH":"2022-10-25T00:00:00.999648","PERIOD":"95.439","FILE":"3631830","ELEMENT_SET_NO":"999","RA_OF_ASC_NODE":"253.3962","ARG_OF_PERICENTER":"39.5308","MEAN_MOTION_DDOT":"0.0000000000000","OBJECT_TYPE":"PAYLOAD","COUNTRY_CODE":"US","RCS_SIZE":"LARGE","OBJECT_NAME":"STARLINK-4535","NORAD_CAT_ID":"53392","MEAN_MOTION_DOT":"0.00023031","BSTAR":"0.00146120000000","CENTER_NAME":"EARTH","PERIAPSIS":"538.423","GP_ID":"216048804","MEAN_ELEMENT_THEORY":"SGP4","CLASSIFICATION_TYPE":"U","REF_FRAME":"TEME","SEMIMAJOR_AXIS":"6917.940","MEAN_ANOMALY":"118.8668","TIME_SYSTEM":"UTC","INCLINATION":"53.2179","TLE_LINE1":"1 53392U 22097E   22298.00001157  .00023031  00000-0  14612-2 0  9994","ECCENTRICITY":"0.00019980","LAUNCH_DATE":"2022-08-10","DECAY_DATE":null,"MEAN_MOTION":"15.08820594","EPHEMERIS_TYPE":"0","APOAPSIS":"541.187","OBJECT_ID":"2022-097E","REV_AT_EPOCH":"1207"},{"INCLINATION":"53.2177","ECCENTRICITY":"0.00021120","TLE_LINE1":"1 53393U 22097F   22298.00001157 -.00015286  00000-0 -94440-3 0  9998","LAUNCH_DATE":"2022-08-10","DECAY_DATE":null,"EPHEMERIS_TYPE":"0","MEAN_MOTION":"15.08835770","OBJECT_ID":"2022-097F","REV_AT_EPOCH":"1207","APOAPSIS":"541.219","CENTER_NAME":"EARTH","BSTAR":"-0.00094440000000","PERIAPSIS":"538.297","GP_ID":"216048814","CLASSIFICATION_TYPE":"U","MEAN_ELEMENT_THEORY":"SGP4","MEAN_ANOMALY":"112.6164","TIME_SYSTEM":"UTC","SEMIMAJOR_AXIS":"6917.893","REF_FRAME":"TEME","ARG_OF_PERICENTER":"25.7664","MEAN_MOTION_DDOT":"0.0000000000000","OBJECT_TYPE":"PAYLOAD","COUNTRY_CODE":"US","NORAD_CAT_ID":"53393","OBJECT_NAME":"STARLINK-4530","RCS_SIZE":"LARGE","MEAN_MOTION_DOT":"-0.00015286","SITE":"AFETR","TLE_LINE2":"2 53393  53.2177 253.3952 0002112  25.7664 112.6164 15.08835770 12070","EPOCH":"2022-10-25T00:00:00.999648","FILE":"3631830","PERIOD":"95.438","RA_OF_ASC_NODE":"253.3952","ELEMENT_SET_NO":"999"}];
